[{"OBJECT_NAME":"TSAT-1A","OBJECT_ID":"2024-066A","EPOCH":"2026-03-09T22:56:57.116832","MEAN_MOTION":15.33219384,"ECCENTRICITY":0.00111833,"INCLINATION":45.6179,"RA_OF_ASC_NODE":302.0275,"ARG_OF_PERICENTER":264.5913,"MEAN_ANOMALY":95.3706,"EPHEMERIS_TYPE":0,"CLASSIFICATION_TYPE":"U","NORAD_CAT_ID":59442,"ELEMENT_SET_NO":999,"REV_AT_EPOCH":10653,"BSTAR":0.00047082724,"MEAN_MOTION_DOT":0.00015138,"MEAN_MOTION_DDOT":0},{"OBJECT_NAME":"STARLINK-35491","OBJECT_ID":"2025-236AD","EPOCH":"2026-03-09T12:22:19.493760","MEAN_MOTION":15.30202633,"ECCENTRICITY":0.00011205,"INCLINATION":53.1579,"RA_OF_ASC_NODE":104.9837,"ARG_OF_PERICENTER":75.3909,"MEAN_ANOMALY":284.7216,"EPHEMERIS_TYPE":0,"CLASSIFICATION_TYPE":"U","NORAD_CAT_ID":66113,"ELEMENT_SET_NO":999,"REV_AT_EPOCH":2291,"BSTAR":0.0010876448,"MEAN_MOTION_DOT":0.00031995,"MEAN_MOTION_DDOT":0}]
